OBJECT_NAME,OBJECT_ID,EPOCH,MEAN_MOTION,ECCENTRICITY,INCLINATION,RA_OF_ASC_NODE,ARG_OF_PERICENTER,MEAN_ANOMALY,EPHEMERIS_TYPE,CLASSIFICATION_TYPE,NORAD_CAT_ID,ELEMENT_SET_NO,REV_AT_EPOCH,BSTAR,MEAN_MOTION_DOT,MEAN_MOTION_DDOT
KUZGTU 1 (RS47S),2023-091AV,2026-06-14T14:44:09.065184,15.29810490,.00123514,97.5070,230.0676,105.9196,254.3406,0,U,57217,999,16398,.39427352E-3,.11336E-3,0
SONATE-2,2024-043Q,2026-06-14T09:03:49.181184,15.58528868,.00069252,97.5521,315.6018,204.5618,155.5308,0,U,59112,999,12745,.5123606E-3,.39204E-3,0
MESAT1,2024-125G,2026-06-14T13:05:30.649632,15.62951200,.00093208,97.2289,22.9685,213.2215,146.8460,0,U,60209,999,10915,.52887913E-3,.48032E-3,0
OOV-CUBE (TUBSAT-30),2024-128F,2026-06-14T12:38:51.437472,15.02764857,.00449619,61.9947,234.8493,133.1128,227.3739,0,U,60240,999,10571,.1619084E-3,.2007E-4,0
COLIBRI-S (RS67S),2024-199M,2026-06-14T14:31:04.783872,15.47632247,.0006272,97.2998,39.4364,291.5918,68.4664,0,U,61746,999,13701,.40816713E-3,.21011E-3,0
HORS 3 (RS81S),2024-199U,2026-06-14T13:54:39.369312,15.54813440,.00037343,97.2984,41.3693,294.2669,65.8195,0,U,61753,999,13715,.52066535E-3,.34675E-3,0
HORS 4 (RS82S),2024-199V,2026-06-14T14:41:33.762048,15.59472604,.00029914,97.2931,42.5875,275.6316,84.4599,0,U,61754,999,13724,.57620303E-3,.457E-3,0
SIT-2086,2024-199AF,2026-06-14T14:51:33.220800,15.52929092,.00043781,97.2940,41.8952,264.6323,95.4430,0,U,61764,999,13403,.5352574E-3,.33293E-3,0
HYPERVIEW 1G (RS66S),2024-199AP,2026-06-14T14:03:14.231232,15.75227229,.00031956,97.2882,45.1746,231.5486,128.5492,0,U,61772,999,13426,.83837024E-3,.127022E-2,0
ALTAIR (RS65S),2024-199AW,2026-06-14T13:45:02.945664,15.36986262,.00113505,97.3033,34.9416,321.8157,38.2282,0,U,61779,999,13671,.26083721E-3,.9376E-4,0
ASRTU-1 (AO-123),2024-199AY,2026-06-14T14:58:09.833952,15.35643784,.00125282,97.3004,34.3182,324.2895,35.7510,0,U,61781,999,13353,.20689222E-3,.7107E-4,0
SAMSAT-IONOSPHERE (RS75S),2024-199BB,2026-06-14T14:49:58.189440,15.57424069,.00058394,97.2951,41.4459,290.1615,69.9012,0,U,61784,999,13716,.5521517E-3,.40542E-3,0
RTU MIREA 1 (RS51S),2024-199BC,2026-06-14T14:00:57.252672,15.60840296,.00054593,97.2942,42.2292,281.2725,78.7919,0,U,61785,999,13406,.59377404E-3,.49659E-3,0
TEVEL2-4,2025-052D,2026-06-14T05:56:56.399136,15.34521114,.0004817,97.3916,61.6351,109.6731,250.5032,0,U,63213,999,6966,.56859E-3,.18966E-3,0
TEVEL2-5,2025-052E,2026-06-14T11:07:43.260960,15.34355748,.00047255,97.3913,61.8001,110.0709,250.1043,0,U,63214,999,6969,.55029345E-3,.18255E-3,0
TEVEL2-6,2025-052F,2026-06-14T06:43:38.807328,15.34313968,.00046437,97.3919,61.6008,110.4903,249.6839,0,U,63215,999,6966,.56220459E-3,.18628E-3,0
TEVEL2-1,2025-052H,2026-06-14T10:31:53.175360,15.33788799,.00046571,97.3887,61.3872,119.1952,240.9757,0,U,63217,999,6967,.53395305E-3,.17394E-3,0
TEVEL2-3,2025-052J,2026-06-14T05:42:29.139264,15.33837086,.0004602,97.3893,61.2078,119.3991,240.7711,0,U,63218,999,6964,.54634E-3,.17827E-3,0
TEVEL2-2,2025-052K,2026-06-14T10:32:21.608736,15.33796885,.000465,97.3889,61.3900,119.9799,240.1905,0,U,63219,999,6967,.53565194E-3,.17454E-3,0
TEVEL2-9,2025-052AD,2026-06-14T06:46:36.615936,15.31820596,.00075567,97.3950,60.6144,138.8374,221.3439,0,U,63237,999,6958,.53265067E-3,.16318E-3,0
TEVEL2-7,2025-052AE,2026-06-14T12:26:58.191648,15.31532651,.00076687,97.3954,60.7678,138.7372,221.4450,0,U,63238,999,6961,.49571998E-3,.15043E-3,0
TEVEL2-8,2025-052AF,2026-06-14T11:04:43.668192,15.31515493,.00076855,97.3953,60.6877,139.5843,220.5971,0,U,63239,999,6960,.52562423E-3,.15949E-3,0
INNOSAT 16 (RS92S7),2025-155C,2026-06-14T15:22:24.104064,15.25433364,.00102503,97.4560,132.7764,184.2907,175.8245,0,U,64878,999,8028,.22139881E-3,.5531E-4,0
GEOSCAN 6 (RS92S6),2025-155D,2026-06-14T15:08:49.121376,15.30109370,.00080101,97.4551,134.1731,170.6936,189.4455,0,U,64879,999,8037,.31860075E-3,.9216E-4,0
GEOSCAN 1 (RS92S1),2025-155E,2026-06-14T15:13:46.296768,15.30701782,.00079701,97.4548,134.3223,170.3091,189.8305,0,U,64880,999,8038,.32442385E-3,.9561E-4,0
239ALFEROV (RS61S),2025-155F,2026-06-14T14:35:17.669760,15.32877755,.00076913,97.4548,134.8483,167.2125,192.9313,0,U,64881,999,8041,.42235773E-3,.13353E-3,0
GEOSCAN 2 (RS92S2),2025-155Q,2026-06-14T15:05:19.685184,15.30972238,.00078089,97.4547,134.4679,157.0937,203.0653,0,U,64890,999,8039,.31812488E-3,.9452E-4,0
GEOSCAN 5 (RS92S5),2025-155R,2026-06-14T14:20:15.567360,15.33196285,.0006395,97.4541,134.9742,170.6517,189.4845,0,U,64891,999,8042,.41775888E-3,.13336E-3,0
GEOSCAN 4 (RS92S4),2025-155S,2026-06-14T13:57:52.181280,15.33349204,.00064435,97.4544,135.0062,170.4710,189.6656,0,U,64892,999,8042,.4217585E-3,.1353E-3,0
