KUZGTU 1 (RS47S)        
1 57217U 23091AV  26165.61399381  .00011336  00000+0  39427-3 0  9998
2 57217  97.5070 230.0676 0012351 105.9196 254.3406 15.29810490163989
SONATE-2                
1 59112U 24043Q   26165.37765256  .00039204  00000+0  51236-3 0  9999
2 59112  97.5521 315.6018 0006925 204.5618 155.5308 15.58528868127453
MESAT1                  
1 60209U 24125G   26165.54549363  .00048032  00000+0  52888-3 0  9990
2 60209  97.2289  22.9685 0009320 213.2215 146.8460 15.62951200109154
OOV-CUBE (TUBSAT-30)    
1 60240U 24128F   26165.52698423  .00002007  00000+0  16191-3 0  9997
2 60240  61.9947 234.8493 0044961 133.1128 227.3739 15.02764857105718
COLIBRI-S (RS67S)       
1 61746U 24199M   26165.60491648  .00021011  00000+0  40817-3 0  9994
2 61746  97.2998  39.4364 0006272 291.5918  68.4664 15.47632247137018
HORS 3 (RS81S)          
1 61753U 24199U   26165.57962233  .00034675  00000+0  52067-3 0  9991
2 61753  97.2984  41.3693 0003734 294.2669  65.8195 15.54813440137150
HORS 4 (RS82S)          
1 61754U 24199V   26165.61219632  .00045700  00000+0  57620-3 0  9996
2 61754  97.2931  42.5875 0002991 275.6316  84.4599 15.59472604137247
SIT-2086                
1 61764U 24199AF  26165.61913450  .00033293  00000+0  53526-3 0  9991
2 61764  97.2940  41.8952 0004378 264.6323  95.4430 15.52929092134034
HYPERVIEW 1G (RS66S)    
1 61772U 24199AP  26165.58558138  .00127022  00000+0  83837-3 0  9996
2 61772  97.2882  45.1746 0003195 231.5486 128.5492 15.75227229134264
ALTAIR (RS65S)          
1 61779U 24199AW  26165.57295076  .00009376  00000+0  26084-3 0  9993
2 61779  97.3033  34.9416 0011350 321.8157  38.2282 15.36986262136712
ASRTU-1 (AO-123)        
1 61781U 24199AY  26165.62372493  .00007107  00000+0  20689-3 0  9996
2 61781  97.3004  34.3182 0012528 324.2895  35.7510 15.35643784133532
SAMSAT-IONOSPHERE (RS7*)
1 61784U 24199BB  26165.61803460  .00040542  00000+0  55215-3 0  9994
2 61784  97.2951  41.4459 0005839 290.1615  69.9012 15.57424069137165
RTU MIREA 1 (RS51S)     
1 61785U 24199BC  26165.58399598  .00049659  00000+0  59377-3 0  9994
2 61785  97.2942  42.2292 0005459 281.2725  78.7919 15.60840296134069
TEVEL2-4                
1 63213U 25052D   26165.24787499  .00018966  00000+0  56859-3 0  9994
2 63213  97.3916  61.6351 0004817 109.6731 250.5032 15.34521114 69662
TEVEL2-5                
1 63214U 25052E   26165.46369515  .00018255  00000+0  55029-3 0  9993
2 63214  97.3913  61.8001 0004725 110.0709 250.1043 15.34355748 69692
TEVEL2-6                
1 63215U 25052F   26165.28031027  .00018628  00000+0  56220-3 0  9996
2 63215  97.3919  61.6008 0004643 110.4903 249.6839 15.34313968 69664
TEVEL2-1                
1 63217U 25052H   26165.43880990  .00017394  00000+0  53395-3 0  9995
2 63217  97.3887  61.3872 0004657 119.1952 240.9757 15.33788799 69672
TEVEL2-3                
1 63218U 25052J   26165.23783726  .00017827  00000+0  54634-3 0  9991
2 63218  97.3893  61.2078 0004602 119.3991 240.7711 15.33837086 69641
TEVEL2-2                
1 63219U 25052K   26165.43913899  .00017454  00000+0  53565-3 0  9998
2 63219  97.3889  61.3900 0004650 119.9799 240.1905 15.33796885 69670
TEVEL2-9                
1 63237U 25052AD  26165.28236824  .00016318  00000+0  53265-3 0  9992
2 63237  97.3950  60.6144 0007556 138.8374 221.3439 15.31820596 69586
TEVEL2-7                
1 63238U 25052AE  26165.51872907  .00015043  00000+0  49572-3 0  9997
2 63238  97.3954  60.7678 0007668 138.7372 221.4450 15.31532651 69615
TEVEL2-8                
1 63239U 25052AF  26165.46161653  .00015949  00000+0  52562-3 0  9999
2 63239  97.3953  60.6877 0007685 139.5843 220.5971 15.31515493 69608
INNOSAT 16 (RS92S7)     
1 64878U 25155C   26165.64055676  .00005531  00000+0  22140-3 0  9995
2 64878  97.4560 132.7764 0010250 184.2907 175.8245 15.25433364 80281
GEOSCAN 6 (RS92S6)      
1 64879U 25155D   26165.63112409  .00009216  00000+0  31860-3 0  9996
2 64879  97.4551 134.1731 0008010 170.6936 189.4455 15.30109370 80371
GEOSCAN 1 (RS92S1)      
1 64880U 25155E   26165.63456362  .00009561  00000+0  32442-3 0  9997
2 64880  97.4548 134.3223 0007970 170.3091 189.8305 15.30701782 80384
239ALFEROV (RS61S)      
1 64881U 25155F   26165.60784340  .00013353  00000+0  42236-3 0  9991
2 64881  97.4548 134.8483 0007691 167.2125 192.9313 15.32877755 80415
GEOSCAN 2 (RS92S2)      
1 64890U 25155Q   26165.62870006  .00009452  00000+0  31812-3 0  9991
2 64890  97.4547 134.4679 0007808 157.0937 203.0653 15.30972238 80393
GEOSCAN 5 (RS92S5)      
1 64891U 25155R   26165.59740240  .00013336  00000+0  41776-3 0  9990
2 64891  97.4541 134.9742 0006395 170.6517 189.4845 15.33196285 80426
GEOSCAN 4 (RS92S4)      
1 64892U 25155S   26165.58185395  .00013530  00000+0  42176-3 0  9995
2 64892  97.4544 135.0062 0006443 170.4710 189.6656 15.33349204 80427
